{
  "type": "FeatureCollection",
  "features": [
    {
      "type": "Feature",
      "properties": {
        "area": "Area 1"
      },
      "geometry": {
        "type": "Polygon",
        "coordinates": [
          [
            [
              -9.64233,
              44.8467
            ],
            [
              -9.64233,
              59.24232
            ],
            [
              10.025,
              59.24232
            ],
            [
              10.025,
              44.8467
            ],
            [
              -9.64233,
              44.8467
            ]
          ]
        ]
      }
    },
    {
      "type": "Feature",
      "properties": {
        "area": "Area 2"
      },
      "geometry": {
        "type": "Polygon",
        "coordinates": [
          [
            [
              9.42772,
              53.39905
            ],
            [
              9.42772,
              56.88422
            ],
            [
              17.17818,
              56.88422
            ],
            [
              17.17818,
              53.39905
            ],
            [
              9.42772,
              53.39905
            ]
          ]
        ]
      }
    },
    {
      "type": "Feature",
      "properties": {
        "area": "Area 3"
      },
      "geometry": {
        "type": "Polygon",
        "coordinates": [
          [
            [
              3.19083,
              42.83233
            ],
            [
              3.19083,
              44.4231
            ],
            [
              10.05767,
              44.4231
            ],
            [
              10.05767,
              42.83233
            ],
            [
              3.19083,
              42.83233
            ]
          ]
        ]
      }
    },
    {
      "type": "Feature",
      "properties": {
        "area": "Area 4"
      },
      "geometry": {
        "type": "Polygon",
        "coordinates": [
          [
            [
              102.4486,
              0.78285
            ],
            [
              102.4486,
              1.93638
            ],
            [
              104.80103,
              1.93638
            ],
            [
              104.80103,
              0.78285
            ],
            [
              102.4486,
              0.78285
            ]
          ]
        ]
      }
    },
    {
      "type": "Feature",
      "properties": {
        "area": "Area 5"
      },
      "geometry": {
        "type": "Polygon",
        "coordinates": [
          [
            [
              16.86032,
              54.21707
            ],
            [
              16.86032,
              55.20038
            ],
            [
              19.6975,
              55.20038
            ],
            [
              19.6975,
              54.21707
            ],
            [
              16.86032,
              54.21707
            ]
          ]
        ]
      }
    }
  ]
}